INTELSAT 23 (IS-23)     
1 38867U 12057A   26191.06250187 -.00000273  00000+0  00000+0 0  9996
2 38867   0.0141  34.5412 0000462 184.3558  38.5923  1.00269710 50185
FM-6                    
1 39360U 13058A   26191.61514668 -.00000006  00000+0  00000+0 0  9999
2 39360   0.0175  39.7148 0001283 137.6192 216.2996  1.00269779 46300
INTELSAT 30 (IS-30)     
1 40271U 14062A   26191.26289811 -.00000140  00000+0  00000+0 0  9997
2 40271   0.0192  51.4260 0001237 336.2755 260.0814  1.00271243  7020
DIRECTV 14              
1 40333U 14078B   26191.62530064 -.00000116  00000+0  00000+0 0  9995
2 40333   0.0097  22.1783 0000268 296.2025  96.0342  1.00269904 42276
DIRECTV 15              
1 40663U 15026A   26191.47523333 -.00000093  00000+0  00000+0 0  9993
2 40663   0.0194  72.3901 0000111 163.9672 120.2514  1.00272881 40697
SKY MEXICO-1            
1 40664U 15026B   26191.55131750 -.00000224  00000+0  00000+0 0  9997
2 40664   0.0052  42.6285 0002300  91.7989 273.7228  1.00271340 40681
INTELSAT 34 (IS-34)     
1 40874U 15039A   26191.05688244 -.00000274  00000+0  00000+0 0  9999
2 40874   0.0101  16.1720 0000122 324.1781 272.6171  1.00270657 39865
INTELSAT 31 (IS-31)     
1 41581U 16035A   26191.26289811 -.00000140  00000+0  00000+0 0  9994
2 41581   0.0186 278.5787 0001013 347.5471  21.6525  1.00271183 36919
INTELSAT 36 (IS-36)     
1 41747U 16053A   26191.17525213 -.00000013  00000+0  00000+0 0  9996
2 41747   0.0102 354.9716 0002514 346.8192  77.8966  1.00268599 36189
INTELSAT 32E (IS-32E)   
1 41945U 17007B   26191.13065417  .00000000  00000+0  00000+0 0  9992
2 41945   0.0258  33.0821 0000341 235.9737  22.8541  1.00267562 34458
INTELSAT 35E (IS-35E)   
1 42818U 17041A   26191.77392009 -.00000229  00000+0  00000+0 0  9994
2 42818   0.0030  99.0225 0001606  10.1934  63.5968  1.00270413 33052
INTELSAT 37E (IS-37E)   
1 42950U 17059A   26191.84848566 -.00000132  00000+0  00000+0 0  9995
2 42950   0.0167  50.2870 0002516  66.6848  99.2492  1.00270716 32307
AZERSPACE 2 (IS-38)     
1 43632U 18074A   26191.86095169  .00000000  00000+0  00000+0 0  9999
2 43632   0.0261  34.3525 0001202  91.0077 158.4760  1.00270666 28683
HORIZONS-3E             
1 43633U 18074B   26190.81617841 -.00000018  00000+0  00000+0 0  9991
2 43633   0.0363 213.3135 0000781  67.3154 109.9513  1.00272318 28566
AT&T T-16               
1 44333U 19034A   26190.90528495 -.00000103  00000+0  00000+0 0  9997
2 44333   0.0147  67.1818 0000718 252.0909 193.6074  1.00271911 25868
INTELSAT 39 (IS-39)     
1 44476U 19049B   26191.86433170  .00000000  00000+0  00000+0 0  9997
2 44476   0.0261  34.1805 0000918 287.5697 340.1394  1.00270151 25366
GALAXY 30 (G-30)        
1 46114U 20056C   26191.75598000  .00000000  00000+0  00000+0 0  9990
2 46114   0.0271  38.4291 0001926  76.0082 321.3874  1.00270462 21526
GALAXY 33 (G-33)        
1 54026U 22128A   26191.68312214  .00000088  00000+0  00000+0 0  9992
2 54026   0.0154  16.8245 0001780  99.7748 284.9268  1.00270694 13973
GALAXY 34 (G-34)        
1 54027U 22128B   26191.68390214  .00000068  00000+0  00000+0 0  9997
2 54027   0.0117  34.2985 0001462  84.1651 287.3426  1.00271931 14144
GALAXY 31 (G-31)        
1 54243U 22153A   26191.68554882  .00000000  00000+0  00000+0 0  9994
2 54243   0.0205  47.8911 0000922  75.7384 290.7675  1.00269899  7360
GALAXY 32 (G-32)        
1 54244U 22153B   26191.26376478 -.00000163  00000+0  00000+0 0  9993
2 54244   0.0095  29.5174 0001507  17.2587 245.3708  1.00271315 13379
GALAXY 35 (G-35)        
1 54741U 22170A   26191.62252681  .00000000  00000+0  00000+0 0  9992
2 54741   0.0172  35.5452 0001858  80.5584 303.4466  1.00269569 13120
GALAXY 36 (G-36)        
1 54742U 22170B   26191.62052002 -.00000176  00000+0  00000+0 0  9993
2 54742   0.0266 116.5098 0002402 342.7513 323.6696  1.00271427 13004
GALAXY 37 (G-37)        
1 57493U 23112A   26191.68433549  .00000057  00000+0  00000+0 0  9998
2 57493   0.0121  61.8218 0001775  52.9234 293.2174  1.00270438 10773
